STARLINK-35851          
1 66356C 25254J   26090.67895833 -.00002145  00000+0 -72277-4 0   904
2 66356  53.1591 130.5066 0001281  87.0130 129.6879 15.30193140    14
STARLINK-35817          
1 66357C 25254K   26090.67756944 -.00005830  00000+0 -19648-3 0   900
2 66357  53.1587 130.4090 0001262  85.1252 176.2677 15.30195713    11
STARLINK-35807          
1 66358C 25254L   26090.77062500 -.00045160  00000+0 -15221-2 0   902
2 66358  53.1588 129.9406 0001241  84.3376 347.4045 15.30212930    14
STARLINK-35805          
1 66359C 25254M   26090.74145833 -.00038278  00000+0 -12900-2 0   904
2 66359  53.1563 129.8574 0001226  87.1472 294.3448 15.30214212    16
STARLINK-35823          
1 66360C 25254N   26090.67826389  .00000059  00000+0  20045-5 0   906
2 66360  53.1567 130.0129 0001234  82.9819  20.0128 15.30188267    18
STARLINK-35813          
1 66361C 25254P   26090.69006944 -.00011278  00000+0 -38007-3 0   908
2 66361  53.1564 130.0268 0001168  85.1031  48.0470 15.30201924    13
STARLINK-35822          
1 66362C 25254Q   26090.67270833  .00005685  00000+0  19172-3 0   902
2 66362  53.1587 130.5919 0001304  91.0799  62.1328 15.30170642    17
STARLINK-35806          
1 66363C 25254R   26090.79215278 -.00046244  00000+0 -15584-2 0   908
2 66363  53.1577 130.1168 0001258  79.7503 331.0427 15.30218484    18
STARLINK-35797          
1 66364C 25254S   26090.76298611 -.00042909  00000+0 -14461-2 0   905
2 66364  53.1589 130.1366 0001340  81.7706 226.4248 15.30215433    11
STARLINK-35827          
1 66365C 25254T   26090.77965278 -.00040545  00000+0 -13666-2 0   907
2 66365  53.1572 129.7932 0001348  86.6883  87.1648 15.30209433    14
STARLINK-35845          
1 66366C 25254U   26090.69493056 -.00009714  00000+0 -32741-3 0   908
2 66366  53.1585 130.2797 0001274  86.0573 294.1893 15.30194205    15
STARLINK-35846          
1 66367C 25254V   26090.74493056 -.00024818  00000+0 -83650-3 0   902
2 66367  53.1570 129.6555 0001147  83.3368  50.3660 15.30201926    18
STARLINK-34861          
1 66368C 25254W   26090.70534722 -.00018354  00000+0 -61826-3 0   904
2 66368  53.1571 127.8923 0000935  73.5438  88.5782 15.30218646    17
STARLINK-35795          
1 66369C 25254X   26090.75048611 -.00034687  00000+0 -11692-2 0   909
2 66369  53.1581 127.7515 0001459  87.2065 288.8396 15.30205620    19
STARLINK-35824          
1 66370C 25254Y   26090.69006944 -.00012598  00000+0 -42457-3 0   908
2 66370  53.1575 127.9979 0001281  86.8731 333.6179 15.30200653    17
STARLINK-35804          
1 66371C 25254Z   26090.71159722 -.00022277  00000+0 -75076-3 0   903
2 66371  53.1568 127.8280 0001312  86.9929 127.0410 15.30204418    15
STARLINK-35821          
1 66372C 25254AA  26090.75881944 -.00022846  00000+0 -77056-3 0   908
2 66372  53.1565 127.5742 0001379  95.5467  36.2665 15.30178900    18
STARLINK-35809          
1 66373C 25254AB  26090.72756944 -.00037434  00000+0 -12616-2 0   906
2 66373  53.1563 127.6842 0001174  80.1887 256.7929 15.30211830    10
STARLINK-35831          
1 66374C 25254AC  26090.74215278 -.00044333  00000+0 -14941-2 0   908
2 66374  53.1585 127.2943 0001356  77.6317 142.5876 15.30216161    19
STARLINK-35826          
1 66375C 25254AD  26090.74562500 -.00051933  00000+0 -17502-2 0   902
2 66375  53.1588 127.1045 0001206  82.0327 244.5723 15.30220214    18
STARLINK-35139          
1 66380C 25257A   26090.67131944 -.00026240  00000+0 -88439-3 0   908
2 66380  53.1563 114.8094 0001187  84.7187 166.2247 15.30205170    10
STARLINK-35158          
1 66381C 25257B   26090.68729167 -.00005008  00000+0 -16878-3 0   907
2 66381  53.1580 115.2163 0001590  80.5542  14.1298 15.30197225    17
STARLINK-35639          
1 66382C 25257C   26090.67826389 -.00026664  00000+0 -89857-3 0   909
2 66382  53.1584 115.2238 0001527  68.4692 353.9054 15.30208169    10
STARLINK-35690          
1 66383C 25257D   26090.70048611 -.00022457  00000+0 -75701-3 0   907
2 66383  53.1569 114.5927 0001230  80.6503  11.7775 15.30197583    15
STARLINK-35662          
1 66384C 25257E   26090.71437500 -.00042010  00000+0 -14159-2 0   904
2 66384  53.1569 114.5048 0001224  78.8467 101.7642 15.30213132    13
STARLINK-35659          
1 66385C 25257F   26090.74284722 -.00043411  00000+0 -14632-2 0   906
2 66385  53.1567 114.4303 0001186  79.3115 229.1445 15.30212307    17
STARLINK-35651          
1 66386C 25257G   26090.68937500 -.00029308  00000+0 -98774-3 0   908
2 66386  53.1571 114.5976 0001277  82.3772 332.0696 15.30207448    16
STARLINK-35661          
1 66387C 25257H   26090.76506944 -.00034153  00000+0 -11512-2 0   900
2 66387  53.1573 114.2221 0001293  81.4367  41.8578 15.30204401    17
STARLINK-35647          
1 66388C 25257J   26090.72479167 -.00036106  00000+0 -12171-2 0   905
2 66388  53.1574 114.3971 0001269  81.8388 185.2709 15.30204447    11
STARLINK-35694          
1 66389C 25257K   26090.77270833 -.00040931  00000+0 -13796-2 0   905
2 66389  53.1572 114.2197 0001209  85.3601  62.5887 15.30210050    11
STARLINK-35665          
1 66390C 25257L   26090.74006944 -.00045257  00000+0 -15252-2 0   909
2 66390  53.1564 114.4819 0001209  85.5073 178.5703 15.30215584    14
STARLINK-35656          
1 66391C 25257M   26090.74284722 -.00044417  00000+0 -14970-2 0   905
2 66391  53.1565 117.4224 0001169  84.9028 138.5938 15.30214141    11
STARLINK-35671          
1 66392C 25257N   26090.73729167 -.00038856  00000+0 -13097-2 0   901
2 66392  53.1576 114.3033 0001351  81.3556 272.0970 15.30209215    14
STARLINK-35652          
1 66393C 25257P   26090.77062500 -.00063481  00000+0 -21379-2 0   901
2 66393  53.1585 114.8011 0001299 106.3251  99.2649 15.30248407    15
STARLINK-35672          
1 66394C 25257Q   26090.74909722 -.00042090  00000+0 -14186-2 0   906
2 66394  53.1580 114.6482 0001263  85.8230 129.1179 15.30213032    17
STARLINK-35681          
1 66395C 25257R   26090.53937500  .00054689  00000+0  18426-2 0   905
2 66395  53.1569 115.4063 0001080  87.1837 162.2781 15.30175342    12
STARLINK-35669          
1 66396C 25257S   26090.67756944 -.00024781  00000+0 -83545-3 0   909
2 66396  53.1569 114.7059 0001287  78.8414 241.4768 15.30195359    12
STARLINK-35510          
1 66397C 25257T   26090.67965278 -.00018156  00000+0 -61231-3 0   909
2 66397  53.1576 114.5799 0001046  88.9216 301.0788 15.30180091    17
STARLINK-35642          
1 66398C 25257U   26090.70812500 -.00032879  00000+0 -11082-2 0   909
2 66398  53.1591 115.0085 0001261  86.3346 175.5321 15.30207052    18
STARLINK-35657          
1 66399C 25257V   26090.78520833 -.00048747  00000+0 -16429-2 0   904
2 66399  53.1592 114.6617 0001237  83.8382 237.0774 15.30217079    17
STARLINK-35667          
1 66400C 25257W   26090.70048611  .00052342  00000+0  17689-2 0   901
2 66400  53.1584 114.9169 0001614  82.9853 200.7888 15.30078100    11
STARLINK-35668          
1 66401C 25257X   26090.72965278 -.00029144  00000+0 -98229-3 0   907
2 66401  53.1579 114.7232 0001233  83.3481  30.2411 15.30205387    11
STARLINK-35644          
1 66402C 25257Y   26090.70187500  .02881100  00000+0  27148-1 0   908
2 66402  53.1591 114.1808 0001143  83.0963 216.8058 15.64995109    15
STARLINK-35602          
1 66403C 25257Z   26090.74006944 -.00035173  00000+0 -11854-2 0   904
2 66403  53.1570 114.6055 0001198  82.2484 123.6465 15.30212028    13
STARLINK-35691          
1 66404C 25257AA  26090.69770833 -.00038403  00000+0 -12941-2 0   901
2 66404  53.1567 114.7680 0001218  83.9452 265.9207 15.30214783    15
STARLINK-35683          
1 66405C 25257AB  26090.75604167 -.00030755  00000+0 -10372-2 0   903
2 66405  53.1566 114.4620 0001328  96.3512 232.5409 15.30187250    15
STARLINK-34840          
1 66406C 25257AC  26090.76993056 -.00043809  00000+0 -14764-2 0   906
2 66406  53.1566 114.3675 0001201  85.8453 331.1851 15.30215304    11
STARLINK-35686          
1 66407C 25257AD  26090.75881944  .00092764  00000+0  31264-2 0   904
2 66407  53.1565 114.4137 0001795  83.1678 278.4419 15.30144922    13
STARLINK-35679          
1 66408C 25257AE  26090.69979167 -.00037768  00000+0 -12727-2 0   901
2 66408  53.1565 114.7286 0001674  89.3631 283.6219 15.30215013    11
STARLINK-35617          
1 66422C 25259A   26090.76715278  .00012754  00000+0  46221-3 0   901
2 66422  43.0031 149.8756 0001495 281.1438 142.9139 15.27554575    15
STARLINK-35618          
1 66423C 25259B   26090.79493056 -.00007158  00000+0 -25943-3 0   904
2 66423  43.0032 149.6497 0001488 284.2077 321.0857 15.27560510    15
STARLINK-35588          
1 66424C 25259C   26090.67340278  .00065040  00000+0  23543-2 0   904
2 66424  43.0030 150.3034 0001741 288.1260  22.0476 15.27565470    14
STARLINK-35555          
1 66425C 25259D   26090.74562500  .00144530  00000+0  52302-2 0   904
2 66425  43.0029 149.8390 0001617 280.1380  89.0490 15.27536519    19
STARLINK-35589          
1 66426C 25259E   26090.72409722  .00026542  00000+0  96178-3 0   901
2 66426  43.0027 149.9301 0001446 272.6397 352.1860 15.27551262    12
STARLINK-35611          
1 66427C 25259F   26090.79701389 -.00009524  00000+0 -34490-3 0   905
2 66427  43.0022 149.4617 0001411 270.9119  56.5355 15.27587635    15
STARLINK-35610          
1 66428C 25259G   26090.71020833  .00035620  00000+0  12912-2 0   904
2 66428  43.0015 149.8993 0001284 259.8791 330.9746 15.27533391    12
STARLINK-35533          
1 66429C 25259H   26090.68173611  .00043136  00000+0  15635-2 0   900
2 66429  43.0022 150.0112 0001520 286.1335 169.1635 15.27533074    15
STARLINK-35470          
1 66430C 25259J   26090.70812500  .00036690  00000+0  13293-2 0   907
2 66430  43.0017 149.8120 0001316 276.7133 345.0627 15.27551582    10
STARLINK-35439          
1 66431C 25259K   26090.68243056  .00048880  00000+0  17718-2 0   909
2 66431  43.0014 149.9226 0001470 281.8614 212.6356 15.27528588    16
